ONEWEB-0309             
1 49095U 21075W   26164.06440930  .00000031  00000+0  45415-4 0  9993
2 49095  87.9134   6.6834 0001894 102.8529 257.2814 13.17648283233030
ONEWEB-0310             
1 49096U 21075X   26164.27127889  .00000369  00000+0  98964-3 0  9992
2 49096  87.8937 351.4596 0001801  90.7129 269.4206 13.12444337234676
ONEWEB-0311             
1 49097U 21075Y   26164.07116990  .00000079  00000+0  17067-3 0  9995
2 49097  87.9136   6.6817 0002281  83.2010 276.9381 13.17649622233083
ONEWEB-0312             
1 49098U 21075Z   26164.08637306  .00000049  00000+0  93103-4 0  9999
2 49098  87.9133   6.6894 0002140  92.7400 267.3977 13.17652706233068
ONEWEB-0313             
1 49099U 21075AA  26164.09127098  .00000109  00000+0  24872-3 0  9996
2 49099  87.9131   6.6941 0001977  86.5192 273.6166 13.17648492233052
ONEWEB-0314             
1 49100U 21075AB  26164.28548064  .00000038  00000+0  65592-4 0  9996
2 49100  87.9144   6.6278 0002229  92.3353 267.8034 13.17648674233058
ONEWEB-0315             
1 49101U 21075AC  26164.24416846 -.00000358  00000+0 -10309-2 0  9996
2 49101  87.8946 351.4288 0002137  83.0632 277.0739 13.12443577234657
ONEWEB-0316             
1 49102U 21075AD  26164.21323962  .00000030  00000+0  43054-4 0  9990
2 49102  87.9160 336.2471 0001922  91.3275 268.8077 13.18686581236686
ONEWEB-0317             
1 49103U 21075AE  26164.24755766 -.00000282  00000+0 -82040-3 0  9993
2 49103  87.8950 351.4521 0001432 113.3352 246.7927 13.12444494234670
ONEWEB-0318             
1 49104U 21075AF  26164.20986875  .00000045  00000+0  80623-4 0  9998
2 49104  87.9167 336.2490 0002049  87.3553 272.7814 13.18685651236647
ONEWEB-0319             
1 49105U 21075AG  26164.07285051  .00000131  00000+0  30530-3 0  9999
2 49105  87.9134   6.6866 0002268  77.6684 282.4701 13.17648529233065
ONEWEB-0323             
1 49106U 21075AH  26164.22892292 -.00000252  00000+0 -73474-3 0  9998
2 49106  87.8948 351.4364 0002341  83.7216 276.4180 13.12442709234032
ONEWEB-0329             
1 49107U 21075AJ  26164.08128812  .00000081  00000+0  17576-3 0  9992
2 49107  87.9136   6.6858 0002000  89.3166 270.8195 13.17648954233047
ONEWEB-0330             
1 49108U 21075AK  26164.25693578  .00000069  00000+0  14470-3 0  9994
2 49108  87.9138   6.6708 0001998  93.3559 266.7801 13.17649386233105
ONEWEB-0292             
1 49186U 21083A   26164.12815651  .00001043  00000+0  28219-2 0  9991
2 49186  87.8942 321.0467 0001887  91.1033 269.0313 13.13466241230394
ONEWEB-0303             
1 49187U 21083B   26164.20649669  .00000017  00000+0  91151-5 0  9993
2 49187  87.9162 336.2487 0002009  89.5034 270.6328 13.18686393229455
ONEWEB-0306             
1 49188U 21083C   26164.19637582 -.00000009  00000+0 -56136-4 0  9999
2 49188  87.9168 336.2383 0001723  98.5092 261.6235 13.18686715229492
ONEWEB-0307             
1 49189U 21083D   26164.19840489  .00000258  00000+0  67128-3 0  9998
2 49189  87.8950 321.0297 0001953  94.5277 265.6076 13.13469431230402
ONEWEB-0320             
1 49190U 21083E   26164.21660243  .00000018  00000+0  11638-4 0  9991
2 49190  87.9157 336.2528 0001817  93.0918 267.0422 13.18685452229456
ONEWEB-0321             
1 49191U 21083F   26164.26169569  .00000087  00000+0  18314-3 0  9995
2 49191  87.9191 275.2171 0001773 106.7245 253.4083 13.20772157236314
ONEWEB-0322             
1 49192U 21083G   26164.19414887 -.00001654  00000+0 -45636-2 0  9993
2 49192  87.8948 321.0310 0001416  97.0611 263.0679 13.13479579230396
ONEWEB-0324             
1 49193U 21083H   26164.18962317  .00000022  00000+0  23795-4 0  9999
2 49193  87.9169 336.2447 0001945  97.4461 262.6892 13.18685246229470
ONEWEB-0325             
1 49194U 21083J   26164.19300170 -.00000003  00000+0 -40019-4 0  9993
2 49194  87.9158 336.2529 0001816  89.6459 270.4881 13.18685440229489
ONEWEB-0326             
1 49195U 21083K   26164.20831566  .00000056  00000+0  10952-3 0  9992
2 49195  87.9167 336.2475 0002036  85.9955 274.1410 13.18684760229477
ONEWEB-0327             
1 49196U 21083L   26164.20803466  .00000024  00000+0  27049-4 0  9992
2 49196  87.9159 336.2521 0002007  81.1109 279.0251 13.18684567229492
ONEWEB-0328             
1 49197U 21083M   26164.18401139  .00000250  00000+0  65018-3 0  9999
2 49197  87.8957 321.0058 0001928  99.5559 260.5788 13.13470200230379
ONEWEB-0331             
1 49198U 21083N   26164.20143086  .00000008  00000+0 -11214-4 0  9999
2 49198  87.9167 336.2426 0002145  86.9413 273.1965 13.18686301229485
ONEWEB-0333             
1 49199U 21083P   26164.17892968  .00000128  00000+0  31447-3 0  9997
2 49199  87.8946 321.0336 0001817  94.4633 265.6704 13.13470612230384
ONEWEB-0334             
1 49200U 21083Q   26164.27902374  .00027348  00000+0  66789-1 0  9992
2 49200  87.9190 275.2251 0001089 125.8973 234.2261 13.21013455236273
ONEWEB-0335             
1 49201U 21083R   26164.17385369  .00000020  00000+0  20642-4 0  9990
2 49201  87.8948 321.0316 0001990  93.2027 266.9330 13.13470845230392
